{
  "type": "FeatureCollection",
  "features": [
    {
      "type": "Feature",
      "properties": {
        "norad_id": 33972,
        "name": "COSMOS 2251 DEB",
        "group": "cosmos-2251-debris",
        "lat": 50.94115892871732,
        "lon": -154.92291346355094,
        "alt_km": 724.4029886751769,
        "timestamp": "2025-12-16T03:53:27.448434+00:00",
        "meta_object_name": "COSMOS 2251 DEB",
        "meta_object_id": "1993-036FF",
        "meta_epoch": "2025-12-14T23:55:39.808128",
        "meta_mean_motion": 14.36241879,
        "meta_eccentricity": 0.01233855,
        "meta_inclination": 73.9943,
        "meta_ra_of_asc_node": 186.5071,
        "meta_arg_of_pericenter": 353.7747,
        "meta_mean_anomaly": 157.033,
        "meta_ephemeris_type": 0,
        "meta_classification_type": "U",
        "meta_norad_cat_id": 33972,
        "meta_element_set_no": 999,
        "meta_rev_at_epoch": 87106,
        "meta_bstar": 0.00085878162,
        "meta_mean_motion_dot": 2.708e-05,
        "meta_mean_motion_ddot": 0,
        "tle_line1": "1 33972U 93036FF  25348.99698852  .00002708  00000+0  85878-3 0  9998",
        "tle_line2": "2 33972  73.9943 186.5071 0123385 353.7747 157.0330 14.36241879871063"
      },
      "geometry": {
        "type": "Point",
        "coordinates": [
          -154.92291346355094,
          50.94115892871732
        ]
      }
    },
    {
      "type": "Feature",
      "properties": {
        "norad_id": 33973,
        "name": "COSMOS 2251 DEB",
        "group": "cosmos-2251-debris",
        "lat": -72.89634076682697,
        "lon": 27.760979852109585,
        "alt_km": 713.9828530050509,
        "timestamp": "2025-12-16T03:53:27.448444+00:00",
        "meta_object_name": "COSMOS 2251 DEB",
        "meta_object_id": "1993-036FG",
        "meta_epoch": "2025-12-15T08:36:12.811104",
        "meta_mean_motion": 14.45393734,
        "meta_eccentricity": 0.00473576,
        "meta_inclination": 74.0084,
        "meta_ra_of_asc_node": 98.0034,
        "meta_arg_of_pericenter": 275.9459,
        "meta_mean_anomaly": 140.1798,
        "meta_ephemeris_type": 0,
        "meta_classification_type": "U",
        "meta_norad_cat_id": 33973,
        "meta_element_set_no": 999,
        "meta_rev_at_epoch": 88638,
        "meta_bstar": 0.00015468386,
        "meta_mean_motion_dot": 5.23e-06,
        "meta_mean_motion_ddot": 0,
        "tle_line1": "1 33973U 93036FG  25349.35848161  .00000523  00000+0  15468-3 0  9991",
        "tle_line2": "2 33973  74.0084  98.0034 0047357 275.9459 140.1798 14.45393734886387"
      },
      "geometry": {
        "type": "Point",
        "coordinates": [
          27.760979852109585,
          -72.89634076682697
        ]
      }
    },
    {
      "type": "Feature",
      "properties": {
        "norad_id": 33975,
        "name": "COSMOS 2251 DEB",
        "group": "cosmos-2251-debris",
        "lat": 24.20648242489156,
        "lon": 85.94620359001986,
        "alt_km": 1029.3432959827533,
        "timestamp": "2025-12-16T03:53:27.448455+00:00",
        "meta_object_name": "COSMOS 2251 DEB",
        "meta_object_id": "1993-036FJ",
        "meta_epoch": "2025-12-15T07:11:40.261920",
        "meta_mean_motion": 14.00530247,
        "meta_eccentricity": 0.01912452,
        "meta_inclination": 73.802,
        "meta_ra_of_asc_node": 79.953,
        "meta_arg_of_pericenter": 212.4549,
        "meta_mean_anomaly": 146.4709,
        "meta_ephemeris_type": 0,
        "meta_classification_type": "U",
        "meta_norad_cat_id": 33975,
        "meta_element_set_no": 999,
        "meta_rev_at_epoch": 85865,
        "meta_bstar": 0.00062912298,
        "meta_mean_motion_dot": 1.069e-05,
        "meta_mean_motion_ddot": 0,
        "tle_line1": "1 33975U 93036FJ  25349.29977155  .00001069  00000+0  62912-3 0  9994",
        "tle_line2": "2 33975  73.8020  79.9530 0191245 212.4549 146.4709 14.00530247858650"
      },
      "geometry": {
        "type": "Point",
        "coordinates": [
          85.94620359001986,
          24.20648242489156
        ]
      }
    },
    {
      "type": "Feature",
      "properties": {
        "norad_id": 33980,
        "name": "COSMOS 2251 DEB",
        "group": "cosmos-2251-debris",
        "lat": -35.28838509701597,
        "lon": -115.42651624572483,
        "alt_km": 684.3232856939094,
        "timestamp": "2025-12-16T03:53:27.448465+00:00",
        "meta_object_name": "COSMOS 2251 DEB",
        "meta_object_id": "1993-036FP",
        "meta_epoch": "2025-12-15T07:27:36.525888",
        "meta_mean_motion": 14.58669153,
        "meta_eccentricity": 0.00285446,
        "meta_inclination": 74.022,
        "meta_ra_of_asc_node": 54.4956,
        "meta_arg_of_pericenter": 199.3022,
        "meta_mean_anomaly": 228.9865,
        "meta_ephemeris_type": 0,
        "meta_classification_type": "U",
        "meta_norad_cat_id": 33980,
        "meta_element_set_no": 999,
        "meta_rev_at_epoch": 88832,
        "meta_bstar": 0.00047580279,
        "meta_mean_motion_dot": 2.201e-05,
        "meta_mean_motion_ddot": 0,
        "tle_line1": "1 33980U 93036FP  25349.31083942  .00002201  00000+0  47580-3 0  9998",
        "tle_line2": "2 33980  74.0220  54.4956 0028544 199.3022 228.9865 14.58669153888329"
      },
      "geometry": {
        "type": "Point",
        "coordinates": [
          -115.42651624572483,
          -35.28838509701597
        ]
      }
    },
    {
      "type": "Feature",
      "properties": {
        "norad_id": 33982,
        "name": "COSMOS 2251 DEB",
        "group": "cosmos-2251-debris",
        "lat": 74.0157409701061,
        "lon": 87.83888193293589,
        "alt_km": 653.7416899312229,
        "timestamp": "2025-12-16T03:53:27.448475+00:00",
        "meta_object_name": "COSMOS 2251 DEB",
        "meta_object_id": "1993-036FR",
        "meta_epoch": "2025-12-15T03:06:47.694816",
        "meta_mean_motion": 14.60221478,
        "meta_eccentricity": 0.00751347,
        "meta_inclination": 74.0709,
        "meta_ra_of_asc_node": 355.3828,
        "meta_arg_of_pericenter": 39.1721,
        "meta_mean_anomaly": 26.435,
        "meta_ephemeris_type": 0,
        "meta_classification_type": "U",
        "meta_norad_cat_id": 33982,
        "meta_element_set_no": 999,
        "meta_rev_at_epoch": 89194,
        "meta_bstar": 0.00035313847,
        "meta_mean_motion_dot": 1.741e-05,
        "meta_mean_motion_ddot": 0,
        "tle_line1": "1 33982U 93036FR  25349.12971869  .00001741  00000+0  35314-3 0  9993",
        "tle_line2": "2 33982  74.0709 355.3828 0075134  39.1721  26.4350 14.60221478891947"
      },
      "geometry": {
        "type": "Point",
        "coordinates": [
          87.83888193293589,
          74.0157409701061
        ]
      }
    },
    {
      "type": "Feature",
      "properties": {
        "norad_id": 33983,
        "name": "COSMOS 2251 DEB",
        "group": "cosmos-2251-debris",
        "lat": -73.32636083469728,
        "lon": 33.34439267593865,
        "alt_km": 716.3275891900321,
        "timestamp": "2025-12-16T03:53:27.448485+00:00",
        "meta_object_name": "COSMOS 2251 DEB",
        "meta_object_id": "1993-036FS",
        "meta_epoch": "2025-12-14T21:37:33.108960",
        "meta_mean_motion": 14.50680531,
        "meta_eccentricity": 0.00213141,
        "meta_inclination": 74.0492,
        "meta_ra_of_asc_node": 142.9861,
        "meta_arg_of_pericenter": 245.7957,
        "meta_mean_anomaly": 276.1434,
        "meta_ephemeris_type": 0,
        "meta_classification_type": "U",
        "meta_norad_cat_id": 33983,
        "meta_element_set_no": 999,
        "meta_rev_at_epoch": 88660,
        "meta_bstar": 0.0004932444,
        "meta_mean_motion_dot": 1.916e-05,
        "meta_mean_motion_ddot": 0,
        "tle_line1": "1 33983U 93036FS  25348.90107765  .00001916  00000+0  49324-3 0  9995",
        "tle_line2": "2 33983  74.0492 142.9861 0021314 245.7957 276.1434 14.50680531886603"
      },
      "geometry": {
        "type": "Point",
        "coordinates": [
          33.34439267593865,
          -73.32636083469728
        ]
      }
    },
    {
      "type": "Feature",
      "properties": {
        "norad_id": 33984,
        "name": "COSMOS 2251 DEB",
        "group": "cosmos-2251-debris",
        "lat": -23.372608917174528,
        "lon": 167.61298804850006,
        "alt_km": 663.246237256033,
        "timestamp": "2025-12-16T03:53:27.448496+00:00",
        "meta_object_name": "COSMOS 2251 DEB",
        "meta_object_id": "1993-036FT",
        "meta_epoch": "2025-12-15T09:16:15.156192",
        "meta_mean_motion": 14.6638904,
        "meta_eccentricity": 0.00229499,
        "meta_inclination": 74.0092,
        "meta_ra_of_asc_node": 341.9914,
        "meta_arg_of_pericenter": 179.3805,
        "meta_mean_anomaly": 250.8065,
        "meta_ephemeris_type": 0,
        "meta_classification_type": "U",
        "meta_norad_cat_id": 33984,
        "meta_element_set_no": 999,
        "meta_rev_at_epoch": 89105,
        "meta_bstar": 0.00057960312,
        "meta_mean_motion_dot": 3.186e-05,
        "meta_mean_motion_ddot": 0,
        "tle_line1": "1 33984U 93036FT  25349.38628653  .00003186  00000+0  57960-3 0  9999",
        "tle_line2": "2 33984  74.0092 341.9914 0022949 179.3805 250.8065 14.66389040891051"
      },
      "geometry": {
        "type": "Point",
        "coordinates": [
          167.61298804850006,
          -23.372608917174528
        ]
      }
    }
  ]
}